0 COSMOS 2366
1 25892U 99045A   13282.29171280  .00000056  00000-0  43277-4 0  6747
2 25892 082.9286 320.4047 0030400 311.0390 097.7059 13.74355956708388
0 COSMOS 2366
1 25892U 99045A   13283.47400792  .00000071  00000-0  59092-4 0  6751
2 25892 082.9284 319.5281 0030381 307.6051 187.4664 13.74355860708549
0 COSMOS 2366
1 25892U 99045A   13284.48798880  .00000081  00000-0  70247-4 0  6768
2 25892 082.9281 318.7763 0030336 304.6840 164.4172 13.74355966708686
0 COSMOS 2366
1 25892U 99045A   13285.50670176  .00000083  00000-0  71537-4 0  6775
2 25892 082.9279 318.0209 0030320 301.7280 164.8028 13.74356149708824
0 COSMOS 2366
1 25892U 99045A   13286.67825183  .00000071  00000-0  59358-4 0  6789
2 25892 082.9276 317.1521 0030283 298.3281 201.3956 13.74356298708987
0 COSMOS 2366
1 25892U 99045A   13287.69596063  .00000057  00000-0  44815-4 0  6791
2 25892 082.9274 316.3974 0030275 295.3634 196.8245 13.74356487709124
0 COSMOS 2366
1 25892U 99045A   13289.13164838  .00000046  00000-0  32965-4 0  6806
2 25892 082.9272 315.3326 0030295 291.2044 100.3117 13.74356777709326
0 COSMOS 2366
1 25892U 99045A   13290.46269632  .00000051  00000-0  38529-4 0  6811
2 25892 082.9272 314.3452 0030271 287.3219 206.0918 13.74356994709503
0 COSMOS 2366
1 25892U 99045A   13291.48417569  .00000054  00000-0  41833-4 0  6824
2 25892 082.9272 313.5875 0030269 284.3443 220.1820 13.74357158709643
0 COSMOS 2366
1 25892U 99045A   13292.50764905  .00000046  00000-0  33061-4 0  6833
2 25892 082.9272 312.8283 0030270 281.3637 244.1354 13.74357101709783
0 COSMOS 2366
1 25892U 99045A   13293.66553529  .00000027  00000-0  13382-4 0  6843
2 25892 082.9272 311.9693 0030281 277.9913 213.1385 13.74356984709944
0 COSMOS 2366
1 25892U 99045A   13294.68609678  .00000028  00000-0  14402-4 0  6859
2 25892 082.9272 311.2124 0030295 275.0288 222.6752 13.74356892710083
0 COSMOS 2366
1 25892U 99045A   13296.12657353  .00000029  00000-0  14726-4 0  6864
2 25892 082.9271 310.1440 0030307 270.8066 149.9093 13.74356762710289
